STARLINK-6329           
1 56525U 23065Y   26064.79671559 -.00003629  00000+0 -25370-3 0  9997
2 56525  43.0018 231.0963 0000705 239.1195 120.9578 15.02540698156045
STARLINK-6317           
1 56526U 23065Z   26064.80004155  .00000311  00000+0  38104-4 0  9995
2 56526  43.0023 231.1292 0001354 268.5881  91.4806 15.02535354156046
STARLINK-6335           
1 56527U 23065AA  26064.79227266  .00000155  00000+0  26562-4 0  9995
2 56527  43.0022 231.0650 0001161 262.5462  97.5249 15.02536304156042
STARLINK-6337           
1 56528U 23065AB  26064.46210101  .00000450  00000+0  48389-4 0  9999
2 56528  43.0039 232.8957 0001556 276.2660  83.8005 15.02537895155997
STARLINK-6307           
1 56529U 23065AC  26064.78376825  .00001743  00000+0  14407-3 0  9990
2 56529  43.0009 218.8482 0001317 264.9489  95.1203 15.02526882156182
STARLINK-6318           
1 56530U 23065AD  26064.43942189  .00000186  00000+0  28850-4 0  9994
2 56530  43.0034 207.5510 0001269 266.5898  93.4799 15.02536184156285
STARLINK-6280           
1 56531U 23065AE  26064.83334490  .00084782  00000+0  54314-2 0  9995
2 56531  43.0005 218.4478 0002021 249.9385  73.1353 15.07562864  5813
STARLINK-6319           
1 56532U 23065AF  26064.83334490  .00117208  00000+0  73289-2 0  9998
2 56532  43.0010 218.5694 0001754 253.8517  22.0911 15.08259120  5715
STARLINK-6310           
1 56533U 23065AG  26064.83334490  .00083456  00000+0  52236-2 0  9995
2 56533  43.0017 218.3344 0002060 257.7492 113.1584 15.08424824  5813
STARLINK-6308           
1 56534U 23065AH  26064.83334490  .00117524  00000+0  70226-2 0  9999
2 56534  43.0010 218.4430 0002457 264.1673  65.1738 15.09913745  5663
STARLINK-6309           
1 56535U 23065AJ  26064.83974557  .00000866  00000+0  79165-4 0  9997
2 56535  43.0031 244.4462 0001337 265.8161  94.2529 15.02534513155894
STARLINK-6312           
1 56536U 23065AK  26064.56717583 -.00000006  00000+0  14649-4 0  9995
2 56536  43.0019 245.8397 0001082 256.2896 103.7825 15.02533840155852
STARLINK-6311           
1 56537U 23065AL  26064.83641989 -.00000102  00000+0  75212-5 0  9993
2 56537  43.0019 244.4235 0001286 273.3853  86.6842 15.02532737155894
STARLINK-6314           
1 56538U 23065AM  26064.83334490  .00113167  00000+0  69028-2 0  9990
2 56538  43.0007 218.2581 0002235 284.1491 119.5919 15.09189524  5656
STARLINK-6135           
1 56539U 23065AN  26063.56334988  .00001110  00000+0  97247-4 0  9992
2 56539  43.0029 251.2077 0001267 261.6718  98.3980 15.02525298155703
STARLINK-6136           
1 56540U 23065AP  26064.55718457  .00001201  00000+0  10394-3 0  9999
2 56540  43.0020 245.7692 0001212 262.2310  97.8395 15.02535222155850
STARLINK-6249           
1 56541U 23065AQ  26064.83334490  .00050036  00000+0  31456-2 0  9993
2 56541  42.9997 244.1632 0001734 293.9505 163.6483 15.08500234  5827
