[{"OBJECT_NAME":"STARLINK-6329","OBJECT_ID":"2023-065Y","EPOCH":"2026-03-05T19:07:16.226976","MEAN_MOTION":15.02540698,"ECCENTRICITY":7.05e-5,"INCLINATION":43.0018,"RA_OF_ASC_NODE":231.0963,"ARG_OF_PERICENTER":239.1195,"MEAN_ANOMALY":120.9578,"EPHEMERIS_TYPE":0,"CLASSIFICATION_TYPE":"U","NORAD_CAT_ID":56525,"ELEMENT_SET_NO":999,"REV_AT_EPOCH":15604,"BSTAR":-0.0002537,"MEAN_MOTION_DOT":-3.629e-5,"MEAN_MOTION_DDOT":0},{"OBJECT_NAME":"STARLINK-6317","OBJECT_ID":"2023-065Z","EPOCH":"2026-03-05T19:12:03.589920","MEAN_MOTION":15.02535354,"ECCENTRICITY":0.0001354,"INCLINATION":43.0023,"RA_OF_ASC_NODE":231.1292,"ARG_OF_PERICENTER":268.5881,"MEAN_ANOMALY":91.4806,"EPHEMERIS_TYPE":0,"CLASSIFICATION_TYPE":"U","NORAD_CAT_ID":56526,"ELEMENT_SET_NO":999,"REV_AT_EPOCH":15604,"BSTAR":3.8104e-5,"MEAN_MOTION_DOT":3.11e-6,"MEAN_MOTION_DDOT":0},{"OBJECT_NAME":"STARLINK-6335","OBJECT_ID":"2023-065AA","EPOCH":"2026-03-05T19:00:52.357824","MEAN_MOTION":15.02536304,"ECCENTRICITY":0.0001161,"INCLINATION":43.0022,"RA_OF_ASC_NODE":231.065,"ARG_OF_PERICENTER":262.5462,"MEAN_ANOMALY":97.5249,"EPHEMERIS_TYPE":0,"CLASSIFICATION_TYPE":"U","NORAD_CAT_ID":56527,"ELEMENT_SET_NO":999,"REV_AT_EPOCH":15604,"BSTAR":2.6562e-5,"MEAN_MOTION_DOT":1.55e-6,"MEAN_MOTION_DDOT":0},{"OBJECT_NAME":"STARLINK-6337","OBJECT_ID":"2023-065AB","EPOCH":"2026-03-05T11:05:25.527264","MEAN_MOTION":15.02537895,"ECCENTRICITY":0.0001556,"INCLINATION":43.0039,"RA_OF_ASC_NODE":232.8957,"ARG_OF_PERICENTER":276.266,"MEAN_ANOMALY":83.8005,"EPHEMERIS_TYPE":0,"CLASSIFICATION_TYPE":"U","NORAD_CAT_ID":56528,"ELEMENT_SET_NO":999,"REV_AT_EPOCH":15599,"BSTAR":4.8389e-5,"MEAN_MOTION_DOT":4.5e-6,"MEAN_MOTION_DDOT":0},{"OBJECT_NAME":"STARLINK-6307","OBJECT_ID":"2023-065AC","EPOCH":"2026-03-05T18:48:37.576800","MEAN_MOTION":15.02526882,"ECCENTRICITY":0.0001317,"INCLINATION":43.0009,"RA_OF_ASC_NODE":218.8482,"ARG_OF_PERICENTER":264.9489,"MEAN_ANOMALY":95.1203,"EPHEMERIS_TYPE":0,"CLASSIFICATION_TYPE":"U","NORAD_CAT_ID":56529,"ELEMENT_SET_NO":999,"REV_AT_EPOCH":15618,"BSTAR":0.00014407,"MEAN_MOTION_DOT":1.743e-5,"MEAN_MOTION_DDOT":0},{"OBJECT_NAME":"STARLINK-6318","OBJECT_ID":"2023-065AD","EPOCH":"2026-03-05T10:32:46.051296","MEAN_MOTION":15.02536184,"ECCENTRICITY":0.0001269,"INCLINATION":43.0034,"RA_OF_ASC_NODE":207.551,"ARG_OF_PERICENTER":266.5898,"MEAN_ANOMALY":93.4799,"EPHEMERIS_TYPE":0,"CLASSIFICATION_TYPE":"U","NORAD_CAT_ID":56530,"ELEMENT_SET_NO":999,"REV_AT_EPOCH":15628,"BSTAR":2.885e-5,"MEAN_MOTION_DOT":1.86e-6,"MEAN_MOTION_DDOT":0},{"OBJECT_NAME":"STARLINK-6280","OBJECT_ID":"2023-065AE","EPOCH":"2026-03-05T20:00:00.999360","MEAN_MOTION":15.07562864,"ECCENTRICITY":0.0002021,"INCLINATION":43.0005,"RA_OF_ASC_NODE":218.4478,"ARG_OF_PERICENTER":249.9385,"MEAN_ANOMALY":73.1353,"EPHEMERIS_TYPE":0,"CLASSIFICATION_TYPE":"U","NORAD_CAT_ID":56531,"ELEMENT_SET_NO":999,"REV_AT_EPOCH":581,"BSTAR":0.0054314,"MEAN_MOTION_DOT":0.00084782,"MEAN_MOTION_DDOT":0},{"OBJECT_NAME":"STARLINK-6319","OBJECT_ID":"2023-065AF","EPOCH":"2026-03-05T20:00:00.999360","MEAN_MOTION":15.0825912,"ECCENTRICITY":0.0001754,"INCLINATION":43.001,"RA_OF_ASC_NODE":218.5694,"ARG_OF_PERICENTER":253.8517,"MEAN_ANOMALY":22.0911,"EPHEMERIS_TYPE":0,"CLASSIFICATION_TYPE":"U","NORAD_CAT_ID":56532,"ELEMENT_SET_NO":999,"REV_AT_EPOCH":571,"BSTAR":0.0073289,"MEAN_MOTION_DOT":0.00117208,"MEAN_MOTION_DDOT":0},{"OBJECT_NAME":"STARLINK-6310","OBJECT_ID":"2023-065AG","EPOCH":"2026-03-05T20:00:00.999360","MEAN_MOTION":15.08424824,"ECCENTRICITY":0.000206,"INCLINATION":43.0017,"RA_OF_ASC_NODE":218.3344,"ARG_OF_PERICENTER":257.7492,"MEAN_ANOMALY":113.1584,"EPHEMERIS_TYPE":0,"CLASSIFICATION_TYPE":"U","NORAD_CAT_ID":56533,"ELEMENT_SET_NO":999,"REV_AT_EPOCH":581,"BSTAR":0.0052236,"MEAN_MOTION_DOT":0.00083456,"MEAN_MOTION_DDOT":0},{"OBJECT_NAME":"STARLINK-6308","OBJECT_ID":"2023-065AH","EPOCH":"2026-03-05T20:00:00.999360","MEAN_MOTION":15.09913745,"ECCENTRICITY":0.0002457,"INCLINATION":43.001,"RA_OF_ASC_NODE":218.443,"ARG_OF_PERICENTER":264.1673,"MEAN_ANOMALY":65.1738,"EPHEMERIS_TYPE":0,"CLASSIFICATION_TYPE":"U","NORAD_CAT_ID":56534,"ELEMENT_SET_NO":999,"REV_AT_EPOCH":566,"BSTAR":0.0070226,"MEAN_MOTION_DOT":0.00117524,"MEAN_MOTION_DDOT":0},{"OBJECT_NAME":"STARLINK-6309","OBJECT_ID":"2023-065AJ","EPOCH":"2026-03-05T20:09:14.017248","MEAN_MOTION":15.02534513,"ECCENTRICITY":0.0001337,"INCLINATION":43.0031,"RA_OF_ASC_NODE":244.4462,"ARG_OF_PERICENTER":265.8161,"MEAN_ANOMALY":94.2529,"EPHEMERIS_TYPE":0,"CLASSIFICATION_TYPE":"U","NORAD_CAT_ID":56535,"ELEMENT_SET_NO":999,"REV_AT_EPOCH":15589,"BSTAR":7.9165e-5,"MEAN_MOTION_DOT":8.66e-6,"MEAN_MOTION_DDOT":0},{"OBJECT_NAME":"STARLINK-6312","OBJECT_ID":"2023-065AK","EPOCH":"2026-03-05T13:36:43.991712","MEAN_MOTION":15.0253384,"ECCENTRICITY":0.0001082,"INCLINATION":43.0019,"RA_OF_ASC_NODE":245.8397,"ARG_OF_PERICENTER":256.2896,"MEAN_ANOMALY":103.7825,"EPHEMERIS_TYPE":0,"CLASSIFICATION_TYPE":"U","NORAD_CAT_ID":56536,"ELEMENT_SET_NO":999,"REV_AT_EPOCH":15585,"BSTAR":1.4649e-5,"MEAN_MOTION_DOT":-6.0e-8,"MEAN_MOTION_DDOT":0},{"OBJECT_NAME":"STARLINK-6311","OBJECT_ID":"2023-065AL","EPOCH":"2026-03-05T20:04:26.678496","MEAN_MOTION":15.02532737,"ECCENTRICITY":0.0001286,"INCLINATION":43.0019,"RA_OF_ASC_NODE":244.4235,"ARG_OF_PERICENTER":273.3853,"MEAN_ANOMALY":86.6842,"EPHEMERIS_TYPE":0,"CLASSIFICATION_TYPE":"U","NORAD_CAT_ID":56537,"ELEMENT_SET_NO":999,"REV_AT_EPOCH":15589,"BSTAR":7.5212e-6,"MEAN_MOTION_DOT":-1.02e-6,"MEAN_MOTION_DDOT":0},{"OBJECT_NAME":"STARLINK-6314","OBJECT_ID":"2023-065AM","EPOCH":"2026-03-05T20:00:00.999360","MEAN_MOTION":15.09189524,"ECCENTRICITY":0.0002235,"INCLINATION":43.0007,"RA_OF_ASC_NODE":218.2581,"ARG_OF_PERICENTER":284.1491,"MEAN_ANOMALY":119.5919,"EPHEMERIS_TYPE":0,"CLASSIFICATION_TYPE":"U","NORAD_CAT_ID":56538,"ELEMENT_SET_NO":999,"REV_AT_EPOCH":565,"BSTAR":0.0069028,"MEAN_MOTION_DOT":0.00113167,"MEAN_MOTION_DDOT":0},{"OBJECT_NAME":"STARLINK-6135","OBJECT_ID":"2023-065AN","EPOCH":"2026-03-04T13:31:13.429632","MEAN_MOTION":15.02525298,"ECCENTRICITY":0.0001267,"INCLINATION":43.0029,"RA_OF_ASC_NODE":251.2077,"ARG_OF_PERICENTER":261.6718,"MEAN_ANOMALY":98.398,"EPHEMERIS_TYPE":0,"CLASSIFICATION_TYPE":"U","NORAD_CAT_ID":56539,"ELEMENT_SET_NO":999,"REV_AT_EPOCH":15570,"BSTAR":9.7247e-5,"MEAN_MOTION_DOT":1.11e-5,"MEAN_MOTION_DDOT":0},{"OBJECT_NAME":"STARLINK-6136","OBJECT_ID":"2023-065AP","EPOCH":"2026-03-05T13:22:20.746848","MEAN_MOTION":15.02535222,"ECCENTRICITY":0.0001212,"INCLINATION":43.002,"RA_OF_ASC_NODE":245.7692,"ARG_OF_PERICENTER":262.231,"MEAN_ANOMALY":97.8395,"EPHEMERIS_TYPE":0,"CLASSIFICATION_TYPE":"U","NORAD_CAT_ID":56540,"ELEMENT_SET_NO":999,"REV_AT_EPOCH":15585,"BSTAR":0.00010394,"MEAN_MOTION_DOT":1.201e-5,"MEAN_MOTION_DDOT":0},{"OBJECT_NAME":"STARLINK-6249","OBJECT_ID":"2023-065AQ","EPOCH":"2026-03-05T20:00:00.999360","MEAN_MOTION":15.08500234,"ECCENTRICITY":0.0001734,"INCLINATION":42.9997,"RA_OF_ASC_NODE":244.1632,"ARG_OF_PERICENTER":293.9505,"MEAN_ANOMALY":163.6483,"EPHEMERIS_TYPE":0,"CLASSIFICATION_TYPE":"U","NORAD_CAT_ID":56541,"ELEMENT_SET_NO":999,"REV_AT_EPOCH":582,"BSTAR":0.0031456,"MEAN_MOTION_DOT":0.00050036,"MEAN_MOTION_DDOT":0}]
